STARLINK-5839           
1 57051U 23088D   24287.25563246  .00001207  00000+0  10443-3 0  9999
2 57051  43.0033  12.1293 0001127 257.4282 102.6435 15.02535448 72380
STARLINK-5860           
1 57052U 23088E   24287.65782669  .00002705  00000+0  21518-3 0  9995
2 57052  43.0039   9.9913 0001532 270.8896  89.1771 15.02546007 73342
STARLINK-5865           
1 57053U 23088F   24287.64115699  .00001484  00000+0  12485-3 0  9994
2 57053  43.0026   9.8632 0001027 268.0020  92.0705 15.02557668 73348
STARLINK-5881           
1 57054U 23088G   24287.63562659  .00009108  00000+0  68815-3 0  9995
2 57054  43.0027   9.8224 0001282 258.5133 101.5565 15.02550321 73348
STARLINK-6237           
1 57055U 23088H   24287.91485700  .00006233  00000+0  47617-3 0  9991
2 57055  43.0038   8.4762 0001135 289.1426  70.9293 15.02526652 72486
STARLINK-6353           
1 57056U 23088J   24287.56469311  .00007735  00000+0  58708-3 0  9994
2 57056  43.0047  10.1508 0001272 271.0716  88.9981 15.02532084 73333
STARLINK-6223           
1 57057U 23088K   24287.96024121  .00003995  00000+0  31064-3 0  9995
2 57057  43.0038   7.9346 0000901 251.5700 108.5045 15.02533111 72490
STARLINK-6217           
1 57058U 23088L   24287.63449639  .00003531  00000+0  27617-3 0  9990
2 57058  43.0048   9.8141 0001279 275.0803  84.9894 15.02554453 73346
STARLINK-6211           
1 57059U 23088M   24287.69211101 -.00000660  00000+0 -33785-4 0  9994
2 57059  43.0047   9.3838 0001063 298.2404  61.8330 15.02546758 73358
STARLINK-6227           
1 57060U 23088N   24287.56249111  .00002609  00000+0  20810-3 0  9991
2 57060  43.0034  10.1329 0001319 270.3989  89.6702 15.02540264 73339
STARLINK-5869           
1 57061U 23088P   24288.21727694  .00007395  00000+0  56184-3 0  9992
2 57061  43.0027   6.4441 0001433 274.2348  85.8331 15.02541927 72538
STARLINK-5536           
1 57062U 23088Q   24287.88181184  .00006661  00000+0  50753-3 0  9994
2 57062  43.0038 355.2006 0001189 263.9299  96.1408 15.02546987 72633
STARLINK-5832           
1 57063U 23088R   24287.94359570  .00002944  00000+0  23294-3 0  9998
2 57063  43.0035   7.8270 0000407 277.9082  82.1715 15.02531626 72495
STARLINK-5822           
1 57064U 23088S   24287.95469157  .00005315  00000+0  40822-3 0  9994
2 57064  43.0066   7.9143 0001507 271.5735  88.4935 15.02537621 72491
STARLINK-5830           
1 57065U 23088T   24287.94470811  .00004500  00000+0  34806-3 0  9993
2 57065  43.0024   7.8361 0000539 270.9056  89.1725 15.02523239 72495
STARLINK-5827           
1 57066U 23088U   24288.21283657  .00009207  00000+0  69583-3 0  9994
2 57066  43.0037   6.4101 0001840 279.3865  80.6769 15.02529805 72538
STARLINK-5824           
1 57067U 23088V   24288.20395550  .00018286  00000+0  13637-2 0  9995
2 57067  43.0034   6.3426 0001209 275.0013  85.0692 15.02576647 72532
STARLINK-5844           
1 57068U 23088W   24287.54139912  .00002965  00000+0  23446-3 0  9997
2 57068  43.0044   9.9692 0001275 247.6594 112.4113 15.02535232 72437
STARLINK-5821           
1 57069U 23088X   24288.19323375  .00006005  00000+0  45933-3 0  9992
2 57069  43.0014 354.1115 0000833 256.6465 103.4285 15.02528345 72679
STARLINK-5828           
1 57070U 23088Y   24287.87859948  .00006214  00000+0  47481-3 0  9990
2 57070  43.0042 356.0591 0001372 272.0343  88.0342 15.02523571 72620
STARLINK-5834           
1 57071U 23088Z   24287.53622349  .00002071  00000+0  16834-3 0  9992
2 57071  43.0042 357.7884 0003052 243.4693 116.5836 15.02538632 72271
STARLINK-5843           
1 57072U 23088AA  24288.20657249 -.00088191  00000+0 -66049-2 0  9996
2 57072  43.0035 354.2196 0011203 306.3908  53.5901 15.02424581 72671
STARLINK-5838           
1 57073U 23088AB  24287.87749368  .00011544  00000+0  86769-3 0  9991
2 57073  43.0043 356.0487 0001792 274.5315  85.5322 15.02560791 72625
STARLINK-5773           
1 57074U 23088AC  24288.20285705  .00004347  00000+0  33684-3 0  9991
2 57074  43.0047   6.3311 0001555 254.9424 105.1247 15.02519437 72537
STARLINK-5542           
1 57075U 23088AD  24287.65698490  .00004469  00000+0  34585-3 0  9995
2 57075  43.0012 356.9730 0000497 226.3327 133.7474 15.02516454 73499
STARLINK-6155           
1 57076U 23088AE  24288.20432378 -.00001189  00000+0 -72938-4 0  9992
2 57076  43.0051 354.2025 0001543 280.5978  79.4690 15.02543672 72675
STARLINK-6194           
1 57077U 23088AF  24288.19434341  .00009003  00000+0  68115-3 0  9995
2 57077  43.0020 354.1214 0000612 253.3129 106.7646 15.02509553 72678
STARLINK-6246           
1 57078U 23088AG  24288.20325297  .00033394  00000+0  24836-2 0  9998
2 57078  43.0006 354.1883 0001298 203.2980 156.7804 15.02410691 72670
STARLINK-6245           
1 57079U 23088AH  24288.18326182  .00006293  00000+0  48086-3 0  9992
2 57079  43.0065 354.0390 0001622 259.4032 100.6627 15.02510314 72663
STARLINK-6243           
1 57080U 23088AJ  24288.19767259  .00005130  00000+0  39448-3 0  9990
2 57080  43.0003 354.1520 0000462 322.3779  37.7031 15.02544104 72665
STARLINK-6184           
1 57081U 23088AK  24288.17991925  .00005880  00000+0  44998-3 0  9996
2 57081  43.0023 354.0130 0000678 293.3675  66.7096 15.02536652 72667
STARLINK-6248           
1 57082U 23088AL  24287.92065327  .00004539  00000+0  35084-3 0  9993
2 57082  43.0060 355.5096 0001752 280.6608  79.4037 15.02542920 72622
STARLINK-6253           
1 57083U 23088AM  24288.17214877  .00005758  00000+0  44119-3 0  9991
2 57083  43.0041 353.9554 0001016 265.7802  94.2924 15.02517438 72666
STARLINK-6240           
1 57084U 23088AN  24288.18102482  .00006932  00000+0  52768-3 0  9995
2 57084  43.0041 354.0226 0001195 274.3358  85.7348 15.02539336 72661
STARLINK-6232           
1 57085U 23088AP  24287.90179778  .00006487  00000+0  49499-3 0  9999
2 57085  43.0001 355.3664 0000454  86.6678 273.4216 15.02521689 72622
STARLINK-6247           
1 57086U 23088AQ  24288.17770119  .00007826  00000+0  59394-3 0  9999
2 57086  43.0052 353.9967 0001170 282.0063  78.0648 15.02524596 72667
STARLINK-6251           
1 57087U 23088AR  24287.89845507  .00008984  00000+0  67955-3 0  9990
2 57087  43.0039 355.3389 0001444 255.1660 104.9023 15.02522451 72625
STARLINK-6257           
1 57088U 23088AS  24287.90846077  .00005780  00000+0  44290-3 0  9994
2 57088  42.9980 355.4181 0000275  72.2383 287.8489 15.02509523 72623
STARLINK-6259           
1 57089U 23088AT  24287.88849380  .00009474  00000+0  71546-3 0  9990
2 57089  42.9970 355.2688 0001144  30.3395 329.7514 15.02537013 72627
STARLINK-6254           
1 57090U 23088AU  24288.16327474  .00017848  00000+0  13319-2 0  9996
2 57090  43.0026 353.8877 0001256 265.1581  94.9118 15.02566349 72665
STARLINK-6262           
1 57091U 23088AV  24287.89180501  .00006931  00000+0  52782-3 0  9993
2 57091  43.0017 355.2876 0000799 252.4421 107.6334 15.02521559 72626
STARLINK-6225           
1 57092U 23088AW  24287.89403771  .00006873  00000+0  52341-3 0  9997
2 57092  43.0017 355.3077 0000778 258.2174 101.8581 15.02530412 72625
STARLINK-6229           
1 57093U 23088AX  24287.88514568  .00004655  00000+0  35951-3 0  9998
2 57093  42.9972 355.2380 0000365  31.3247 328.7617 15.02522329 72632
STARLINK-6235           
1 57094U 23088AY  24288.21641779  .00000939  00000+0  84563-4 0  9997
2 57094  43.0035 353.4240 0000864 304.9393  55.1368 15.02521811 72678
STARLINK-6132           
1 57101U 23090A   24288.04092041  .00004142  00000+0  32160-3 0  9997
2 57101  43.0032 175.1985 0001429 294.5736  65.4957 15.02523445 72305
STARLINK-6111           
1 57102U 23090B   24287.96888683 -.00009604  00000+0 -69653-3 0  9990
2 57102  43.0015 175.5164 0001326 291.4829  68.5872 15.02552138 72294
STARLINK-6123           
1 57103U 23090C   24287.89848543 -.00000324  00000+0 -89217-5 0  9994
2 57103  43.0012 149.8128 0001133 258.6987 101.3728 15.02536147 73729
STARLINK-6130           
1 57104U 23090D   24287.97111031 -.00009161  00000+0 -66372-3 0  9992
2 57104  43.0020 175.5333 0001288 293.0438  67.0268 15.02551161 72299
STARLINK-6097           
1 57105U 23090E   24288.03426497  .00004654  00000+0  35936-3 0  9998
2 57105  43.0027 175.1468 0001328 257.2824 102.7870 15.02533029 72309
STARLINK-6118           
1 57106U 23090F   24287.76280068  .00000494  00000+0  51662-4 0  9993
2 57106  43.0023 176.5441 0001242 298.5503  61.5214 15.02531465 73407
STARLINK-6131           
1 57107U 23090G   24288.08189025  .00014267  00000+0  10710-2 0  9991
2 57107  42.9997 174.6399 0001542 254.9915 105.0756 15.02467836 72317
STARLINK-6099           
1 57108U 23090H   24287.96445395  .00002042  00000+0  16625-3 0  9993
2 57108  42.9984 175.4773 0001803 267.9209  92.1427 15.02527268 72293
STARLINK-6139           
1 57109U 23090J   24287.68855806 -.00002351  00000+0 -15900-3 0  9995
2 57109  43.0017 176.8532 0001893 250.0545 110.0093 15.02533689 73391
STARLINK-6134           
1 57110U 23090K   24287.76612771  .00002156  00000+0  17462-3 0  9994
2 57110  43.0007 176.5732 0000923 267.0177  93.0560 15.02536056 73405
STARLINK-6140           
1 57111U 23090L   24288.07521415  .00005873  00000+0  44965-3 0  9991
2 57111  43.0027 174.5909 0001348 303.4814  56.5900 15.02521408 72313
STARLINK-6141           
1 57112U 23090M   24288.09186933  .00006593  00000+0  50286-3 0  9999
2 57112  43.0012 174.7178 0001637 247.6243 112.4426 15.02522165 72310
STARLINK-6142           
1 57113U 23090N   24288.08076618  .00005796  00000+0  44398-3 0  9998
2 57113  43.0022 174.6326 0001361 291.2232  68.8464 15.02521197 72313
STARLINK-6125           
1 57114U 23090P   24287.74504169  .00000897  00000+0  81452-4 0  9998
2 57114  42.9975 176.4106 0001127 288.5246  71.5474 15.02525013 73403
STARLINK-6085           
1 57115U 23090Q   24287.14118950 -.00005039  00000+0 -35834-3 0  9999
2 57115  43.0035 179.6203 0001588 251.1135 108.9535 15.02518293 73315
